NORAD_CAT_ID,OBJECT_NAME,OBJECT_TYPE,EPOCH,MEAN_MOTION,ECCENTRICITY,INCLINATION,RA_OF_ASC_NODE,ARG_OF_PERICENTER,MEAN_ANOMALY,BSTAR,MEAN_MOTION_DOT,MEAN_MOTION_DDOT,TLE_LINE0,TLE_LINE1,TLE_LINE2,SEMIMAJOR_AXIS,PERIOD,APOGEE,PERIGEE,DECAYED
55397.0,STARLINK-5224,PAYLOAD,2023-02-17 10:30:43,15.69923863,0.0003454,69.9986,42.596,271.6134,88.4666,0.00034811,0.00041854,0.0,0 STARLINK-5224,1 55397U 23014G   23048.43800118  .00041854  00000-0  34811-3 0  9993,2 55397  69.9986  42.5960 0003454 271.6134  88.4666 15.69923863  2837,6737.252,91.724,361.444,356.79,0.0
55397.0,STARLINK-5224,PAYLOAD,2023-02-17 13:34:13,15.69940337,0.0003507,69.9985,42.2376,273.4869,86.5926,0.00057378,0.00069401,0.0,0 STARLINK-5224,1 55397U 23014G   23048.56543366  .00069401  00000-0  57378-3 0  9997,2 55397  69.9985  42.2376 0003507 273.4869  86.5926 15.69940337  3797,6737.205,91.723,361.432,356.707,0.0
55397.0,STARLINK-5224,PAYLOAD,2023-02-17 21:12:59,15.69917555,0.0003797,69.9983,41.3415,279.0495,81.0271,0.00025665,0.00030754,0.0,0 STARLINK-5224,1 55397U 23014G   23048.88401900  .00030754  00000-0  25665-3 0  9992,2 55397  69.9983  41.3415 0003797 279.0495  81.0271 15.69917555  3842,6737.27,91.725,361.693,356.577,0.0
55397.0,STARLINK-5224,PAYLOAD,2023-02-18 01:48:14,15.699317,0.0003587,69.9981,40.8041,267.7486,92.3299,0.00048045,0.00057978,0.0,0 STARLINK-5224,1 55397U 23014G   23049.07516769  .00057978  00000-0  48045-3 0  9998,2 55397  69.9981  40.8041 0003587 267.7486  92.3299 15.69931700  2932,6737.229,91.724,361.511,356.678,0.0
55397.0,STARLINK-5224,PAYLOAD,2023-02-18 10:58:45,15.69943998,0.0003486,69.9982,39.729,268.5284,91.5513,0.00046178,0.00055729,0.0,0 STARLINK-5224,1 55397U 23014G   23049.45746677  .00055729  00000-0  46178-3 0  9990,2 55397  69.9982  39.7290 0003486 268.5284  91.5513 15.69943998  2997,6737.194,91.723,361.408,356.711,0.0
55397.0,STARLINK-5224,PAYLOAD,2023-02-18 14:02:15,15.69928505,0.0003301,69.9982,39.3705,273.4779,86.6039,0.0004317,0.00052027,0.0,0 STARLINK-5224,1 55397U 23014G   23049.58490208  .00052027  00000-0  43170-3 0  9997,2 55397  69.9982  39.3705 0003301 273.4779  86.6039 15.69928505  3956,6737.239,91.724,361.328,356.88,0.0
55397.0,STARLINK-5224,PAYLOAD,2023-02-18 18:37:30,15.69939551,0.0003395,69.9982,38.833,268.9646,91.1161,0.00063372,0.00076736,0.0,0 STARLINK-5224,1 55397U 23014G   23049.77605055  .00076736  00000-0  63372-3 0  9995,2 55397  69.9982  38.8330 0003395 268.9646  91.1161 15.69939551  3049,6737.207,91.723,361.359,356.785,0.0
55397.0,STARLINK-5224,PAYLOAD,2023-02-19 02:16:16,15.69933111,0.0003319,69.9982,37.9372,265.8161,94.2655,0.00037325,0.00044925,0.0,0 STARLINK-5224,1 55397U 23014G   23050.09463475  .00044925  00000-0  37325-3 0  9994,2 55397  69.9982  37.9372 0003319 265.8161  94.2655 15.69933111  3092,6737.225,91.724,361.326,356.854,0.0
55397.0,STARLINK-5224,PAYLOAD,2023-02-19 09:55:02,15.69932369,0.0003297,69.9984,37.0411,267.5853,92.4965,0.0002934,0.00035226,0.0,0 STARLINK-5224,1 55397U 23014G   23050.41321844  .00035226  00000-0  29340-3 0  9995,2 55397  69.9984  37.0411 0003297 267.5853  92.4965 15.69932369  3145,6737.227,91.724,361.314,356.871,0.0
55397.0,STARLINK-5224,PAYLOAD,2023-02-19 14:30:17,15.69914072,0.0003463,69.9985,36.5036,268.2337,91.8462,0.00027241,0.00032657,0.0,0 STARLINK-5224,1 55397U 23014G   23050.60437012  .00032657  00000-0  27241-3 0  9994,2 55397  69.9985  36.5036 0003463 268.2337  91.8462 15.69914072  4117,6737.28,91.725,361.478,356.812,0.0
55397.0,STARLINK-5224,PAYLOAD,2023-02-19 19:05:32,15.69923343,0.0003483,69.9985,35.9661,269.5,90.5796,0.00046117,0.00055607,0.0,0 STARLINK-5224,1 55397U 23014G   23050.79552075  .00055607  00000-0  46117-3 0  9994,2 55397  69.9985  35.9661 0003483 269.5000  90.5796 15.69923343  3203,6737.253,91.724,361.465,356.772,0.0
55397.0,STARLINK-5224,PAYLOAD,2023-02-20 02:44:18,15.69943376,0.0003466,69.9983,35.0702,269.6634,90.4165,0.00038728,0.00046652,0.0,0 STARLINK-5224,1 55397U 23014G   23051.11410297  .00046652  00000-0  38728-3 0  9999,2 55397  69.9983  35.0702 0003466 269.6634  90.4165 15.69943376  3255,6737.196,91.723,361.396,356.726,0.0
55397.0,STARLINK-5224,PAYLOAD,2023-02-20 10:23:04,15.69929148,0.0003393,69.9985,34.1741,271.2408,88.8399,0.00030863,0.00037069,0.0,0 STARLINK-5224,1 55397U 23014G   23051.43268655  .00037069  00000-0  30863-3 0  9997,2 55397  69.9985  34.1741 0003393 271.2408  88.8399 15.69929148  3304,6737.237,91.724,361.388,356.816,0.0
55397.0,STARLINK-5224,PAYLOAD,2023-02-20 13:26:34,15.69922209,0.0003294,69.9986,33.816,274.7924,85.2896,0.00042178,0.00050806,0.0,0 STARLINK-5224,1 55397U 23014G   23051.56012172  .00050806  00000-0  42178-3 0  9998,2 55397  69.9986  33.8160 0003294 274.7924  85.2896 15.69922209  4267,6737.257,91.724,361.341,356.902,0.0
55397.0,STARLINK-5224,PAYLOAD,2023-02-20 18:01:49,15.69926013,0.0003454,69.9985,33.2784,271.7318,88.3482,0.00039611,0.00047692,0.0,0 STARLINK-5224,1 55397U 23014G   23051.75127029  .00047692  00000-0  39611-3 0  9994,2 55397  69.9985  33.2784 0003454 271.7318  88.3482 15.69926013  3355,6737.246,91.724,361.438,356.784,0.0
55397.0,STARLINK-5224,PAYLOAD,2023-02-21 01:40:35,15.69944421,0.0003508,69.9985,32.3832,269.337,90.7424,0.00023358,0.00027991,0.0,0 STARLINK-5224,1 55397U 23014G   23052.06985158  .00027991  00000-0  23358-3 0  9995,2 55397  69.9985  32.3832 0003508 269.3370  90.7424 15.69944421  3402,6737.193,91.723,361.421,356.695,0.0
55397.0,STARLINK-5224,PAYLOAD,2023-02-21 09:19:20,15.69938527,0.0003423,69.9989,31.4868,271.0059,89.0744,0.00028743,0.00034512,0.0,0 STARLINK-5224,1 55397U 23014G   23052.38843454  .00034512  00000-0  28743-3 0  9992,2 55397  69.9989  31.4868 0003423 271.0059  89.0744 15.69938527  3456,6737.21,91.723,361.381,356.769,0.0
55397.0,STARLINK-5224,PAYLOAD,2023-02-21 13:54:36,15.69916978,0.0003679,69.999,30.9491,269.8495,90.228,0.00031372,0.0003767,0.0,0 STARLINK-5224,1 55397U 23014G   23052.57958601  .00037670  00000-0  31372-3 0  9994,2 55397  69.9990  30.9491 0003679 269.8495  90.2280 15.69916978  4429,6737.272,91.725,361.615,356.658,0.0
55397.0,STARLINK-5224,PAYLOAD,2023-02-21 18:29:51,15.69927623,0.0003657,69.999,30.4117,273.1324,86.9454,0.00056315,0.00068066,0.0,0 STARLINK-5224,1 55397U 23014G   23052.77073653  .00068066  00000-0  56315-3 0  9998,2 55397  69.9990  30.4117 0003657 273.1324  86.9454 15.69927623  3517,6737.241,91.724,361.57,356.642,0.0
55397.0,STARLINK-5224,PAYLOAD,2023-02-21 20:01:36,15.69924335,0.0003715,69.9991,30.2326,272.0583,88.0188,0.0004911,0.0005926,0.0,0 STARLINK-5224,1 55397U 23014G   23052.83445335  .00059260  00000-0  49110-3 0  9996,2 55397  69.9991  30.2326 0003715 272.0583  88.0188 15.69924335  4467,6737.25,91.724,361.618,356.613,0.0
55397.0,STARLINK-5224,PAYLOAD,2023-02-22 02:08:37,15.69949427,0.0003712,69.9989,29.5159,270.6017,89.4753,0.00041406,0.00049927,0.0,0 STARLINK-5224,1 55397U 23014G   23053.08931764  .00049927  00000-0  41406-3 0  9999,2 55397  69.9989  29.5159 0003712 270.6017  89.4753 15.69949427  3564,6737.179,91.723,361.545,356.543,0.0
55397.0,STARLINK-5224,PAYLOAD,2023-02-22 09:47:23,15.69915245,0.0003081,69.9991,28.6201,273.5898,86.4946,0.00025342,0.00030357,0.0,0 STARLINK-5224,1 55397U 23014G   23053.40790665  .00030357  00000-0  25342-3 0  9996,2 55397  69.9991  28.6201 0003081 273.5898  86.4946 15.69915245  3611,6737.276,91.725,361.217,357.066,0.0
55397.0,STARLINK-5224,PAYLOAD,2023-02-22 15:54:23,15.69913397,0.0002918,69.9991,27.9035,276.4242,83.6622,0.00036533,0.00043923,0.0,0 STARLINK-5224,1 55397U 23014G   23053.66277614  .00043923  00000-0  36533-3 0  9995,2 55397  69.9991  27.9035 0002918 276.4242  83.6622 15.69913397  4595,6737.282,91.725,361.113,357.181,0.0
55397.0,STARLINK-5224,PAYLOAD,2023-02-23 04:08:24,15.69950584,0.0003388,69.9991,26.471,273.4106,86.6702,0.00028407,0.00034121,0.0,0 STARLINK-5224,1 55397U 23014G   23054.17250464  .00034121  00000-0  28407-3 0  9997,2 55397  69.9991  26.4710 0003388 273.4106  86.6702 15.69950584  3733,6737.175,91.723,361.323,356.758,0.0
55397.0,STARLINK-5224,PAYLOAD,2023-02-23 10:15:25,15.69945009,0.0003025,69.9991,25.7544,279.6319,80.4534,0.00021448,0.00025676,0.0,0 STARLINK-5224,1 55397U 23014G   23054.42737326  .00025676  00000-0  21448-3 0  9995,2 55397  69.9991  25.7544 0003025 279.6319  80.4534 15.69945009  3777,6737.191,91.723,361.094,357.018,0.0
55397.0,STARLINK-5224,PAYLOAD,2023-02-24 04:36:26,15.69932056,0.0003734,69.9993,23.6046,267.7517,92.3251,0.00034249,0.00041187,0.0,0 STARLINK-5224,1 55397U 23014G   23055.19197428  .00041187  00000-0  34249-3 0  9991,2 55397  69.9993  23.6046 0003734 267.7517  92.3251 15.69932056  3897,6737.228,91.724,361.609,356.578,0.0
55397.0,STARLINK-5224,PAYLOAD,2023-02-24 07:39:56,15.69937314,0.0003523,69.9991,23.246,268.5716,91.5076,0.00017862,0.00021332,0.0,0 STARLINK-5224,1 55397U 23014G   23055.31940641  .00021332  00000-0  17862-3 0  9990,2 55397  69.9991  23.2460 0003523 268.5716  91.5076 15.69937314  4852,6737.213,91.723,361.452,356.705,0.0
55397.0,STARLINK-5224,PAYLOAD,2023-02-25 00:29:13,15.69921265,0.0002929,70.0,21.2745,271.2005,88.8855,3.0658e-05,3.475e-05,0.0,0 STARLINK-5224,1 55397U 23014G   23056.02029754  .00003475  00000-0  30658-4 0  9999,2 55397  70.0000  21.2745 0002929 271.2005  88.8855 15.69921265  4022,6737.259,91.724,361.098,357.151,0.0
55397.0,STARLINK-5224,PAYLOAD,2023-02-25 05:04:28,15.69929504,0.0003032,69.9994,20.7374,269.1534,90.9315,7.6211e-05,8.962e-05,0.0,0 STARLINK-5224,1 55397U 23014G   23056.21144670  .00008962  00000-0  76211-4 0  9996,2 55397  69.9994  20.7374 0003032 269.1534  90.9315 15.69929504  4997,6737.236,91.724,361.143,357.058,0.0
55397.0,STARLINK-5224,PAYLOAD,2023-02-26 08:36:00,15.69927121,0.0002837,69.9989,17.5128,268.9685,91.1186,-2.2421e-05,-2.908e-05,0.0,0 STARLINK-5224,1 55397U 23014G   23057.35833887 -.00002908  00000-0 -22421-4 0  9997,2 55397  69.9989  17.5128 0002837 268.9685  91.1186 15.69927121  4237,6737.243,91.724,361.019,357.196,0.0
